ISS (ZARYA)             
1 25544U 98067A   26169.80206885  .00008155  00000+0  15439-3 0  9994
2 25544  51.6331 292.1003 0004667 202.2920 157.7867 15.49302471572009
OSCAR 7 (AO-7)          
1 07530U 74089B   26169.84572557 -.00000050  00000+0 -22316-4 0  9994
2 07530 101.9899 183.1097 0012589 127.0103  56.2077 12.53698116360729
PHASE 3B (AO-10)        
1 14129U 83058B   26168.36952042  .00000190  00000+0  00000+0 0  9993
2 14129  25.9123 219.5345 6010777 115.7182 316.6307  2.05868747295495
UOSAT 2 (UO-11)         
1 14781U 84021B   26169.63090029  .00000953  00000+0  10259-3 0  9995
2 14781  97.8058 135.1893 0007790 167.6265 192.5146 14.90786318257342
LUSAT (LO-19)           
1 20442U 90005G   26169.50756887  .00000077  00000+0  44240-4 0  9997
2 20442  98.8849 191.3496 0011194 197.0729 163.0080 14.34123547902580
EYESAT A (AO-27)        
1 22825U 93061C   26169.74797184  .00000072  00000+0  44201-4 0  9992
2 22825  98.6880 237.1610 0009544  95.7674 264.4597 14.30942648707226
ITAMSAT (IO-26)         
1 22826U 93061D   26169.72691892  .00000075  00000+0  45080-4 0  9999
2 22826  98.6828 237.0576 0010059  80.9197 279.3124 14.31369569707539
RADIO ROSTO (RS15)      
1 23439U 94085A   26169.80107356 -.00000048  00000+0 -14248-3 0  9996
2 23439  64.8179 300.6061 0155998   3.5777 356.6226 11.27583485296089
JAS-2 (FO-29)           
1 24278U 96046B   26169.86373956 -.00000009  00000+0  23419-4 0  9991
2 24278  98.5238  18.5062 0350921  92.0938 272.0420 13.53274506473392
TECHSAT 1B (GO-32)      
1 25397U 98043D   26169.75022169  .00000035  00000+0  35257-4 0  9999
2 25397  99.0067 162.5483 0001133 159.7201 200.4022 14.24428644451550
PCSAT (NO-44)           
1 26931U 01043C   26169.48637696  .00000076  00000+0  59455-4 0  9996
2 26931  67.0504 240.9116 0006080 264.6354  95.4054 14.31956504290637
SAUDISAT 1C (SO-50)     
1 27607U 02058C   26169.36907802  .00000788  00000+0  11046-3 0  9993
2 27607  64.5511 125.3282 0075194 262.2562  97.0002 14.83049237264630
CUTE-1 (CO-55)          
1 27844U 03031E   26169.72312841  .00000216  00000+0  11222-3 0  9993
2 27844  98.6736 178.2627 0009643 173.5600 186.5705 14.24336519191891
CUBESAT XI-IV (CO-57)   
1 27848U 03031J   26168.93924090  .00000186  00000+0  10079-3 0  9999
2 27848  98.6765 177.2007 0009073 194.7196 165.3719 14.23621196191482
MOZHAETS 4 (RS22)       
1 27939U 03042A   26169.85155837  .00001161  00000+0  18710-3 0  9993
2 27939  98.3465 354.2570 0009917 263.9004 208.4912 14.73471325215790
CUBESAT XI-V            
1 28895U 05043F   26168.94617719  .00001113  00000+0  18286-3 0  9994
2 28895  98.2987 324.5839 0013704 198.2082 161.8635 14.72633352101868
CUTE-1.7+APD II (CO-65) 
1 32785U 08021C   26169.70716628  .00004368  00000+0  27673-3 0  9995
2 32785  97.8275 151.1573 0009595  34.0332 326.1510 15.09462529985420
SEEDS II (CO-66)        
1 32791U 08021J   26169.44123302  .00014056  00000+0  44622-3 0  9992
2 32791  97.7517 167.3987 0000890 357.5135   2.6101 15.32786684987483
YUBILEINY (RS30)        
1 32953U 08025A   26169.78850128 -.00000001  00000+0 -76467-4 0  9996
2 32953  82.5036 354.4435 0018797 310.2054  49.7380 12.43179425819897
KKS-1 (KISEKI)          
1 33499U 09002H   26169.80831867  .00001003  00000+0  12984-3 0  9994
2 33499  98.1189  92.2763 0006462 289.6073  70.4442 14.83127513936439
SWISSCUBE               
1 35932U 09051B   26169.74226071  .00000745  00000+0  15677-3 0  9994
2 35932  98.4034  77.6577 0006063 197.6452 162.4539 14.62484142889382
BEESAT-1                
1 35933U 09051C   26169.68405162  .00000636  00000+0  13739-3 0  9994
2 35933  98.3962  77.2309 0004309 211.2918 148.8026 14.61722602889409
ITUPSAT1                
1 35935U 09051E   26169.19666220  .00000591  00000+0  13197-3 0  9994
2 35935  98.4047  75.9267 0006285 230.1057 129.9590 14.60442029888881
XIWANG-1 (HOPE-1)       
1 36122U 09072B   26169.83986308  .00000375  00000+0  10985-2 0  9990
2 36122 100.4033 123.6462 0006888 227.4339 132.6193 13.16440680793222
O/OREOS (USA 219)       
1 37224U 10062C   26169.80342157  .00001725  00000+0  16849-3 0  9996
2 37224  71.9701  76.6784 0012603  59.6862 300.5554 14.93749943116880
JUGNU                   
1 37839U 11058B   26169.70142228  .00000394  00000+0  66297-4 0  9994
2 37839  19.9619 299.2304 0018627  92.8225 295.0564 14.13777162759245
SRMSAT                  
1 37841U 11058D   26169.37117840  .00000354  00000+0  48168-4 0  9995
2 37841  19.9726  52.3001 0011756 216.7081 303.9733 14.11575778757985
STRAND-1                
1 39090U 13009E   26169.72693088  .00000194  00000+0  79602-4 0  9992
2 39090  98.3923 349.9234 0007804 220.1282 139.9329 14.37163972697288
ZACUBE-1 (TSHEPISOSAT)  
1 39417U 13066B   26169.34046199  .00002374  00000+0  18681-3 0  9992
2 39417  97.8077 131.6833 0040949 243.7163 115.9851 15.01194004680909
GOMX-1                  
1 39430U 13066Q   26169.82020104  .00001688  00000+0  25762-3 0  9993
2 39430  97.6474  10.1797 0130146  72.3376 289.1992 14.69466264670153
